{
  "type": "FeatureCollection",
  "features": [
    {
      "type": "Feature",
      "properties": {
        "norad_id": 38817,
        "name": "FENGYUN 1C DEB",
        "group": "fengyun-1c-debris",
        "lat": 3.5799885673064367,
        "lon": -151.28243046313005,
        "alt_km": 946.4281473417714,
        "timestamp": "2025-12-03T19:33:07.266028+00:00",
        "meta_object_name": "FENGYUN 1C DEB",
        "meta_object_id": "1999-025EVH",
        "meta_epoch": "2025-12-03T10:41:28.354848",
        "meta_mean_motion": 13.57640916,
        "meta_eccentricity": 0.02908,
        "meta_inclination": 98.6006,
        "meta_ra_of_asc_node": 208.9364,
        "meta_arg_of_pericenter": 68.5289,
        "meta_mean_anomaly": 294.6598,
        "meta_ephemeris_type": 0,
        "meta_classification_type": "U",
        "meta_norad_cat_id": 38817,
        "meta_element_set_no": 999,
        "meta_rev_at_epoch": 65708,
        "meta_bstar": 0.0025283,
        "meta_mean_motion_dot": 2.357e-05,
        "meta_mean_motion_ddot": 0,
        "tle_line1": "1 38817U 99025EVH 25337.44546707  .00002357  00000+0  25283-2 0  9997",
        "tle_line2": "2 38817  98.6006 208.9364 0290800  68.5289 294.6598 13.57640916657088"
      },
      "geometry": {
        "type": "Point",
        "coordinates": [
          -151.28243046313005,
          3.5799885673064367
        ]
      }
    },
    {
      "type": "Feature",
      "properties": {
        "norad_id": 38818,
        "name": "FENGYUN 1C DEB",
        "group": "fengyun-1c-debris",
        "lat": -3.8226204200371683,
        "lon": -146.1674510917903,
        "alt_km": 729.829113028014,
        "timestamp": "2025-12-03T19:33:07.266039+00:00",
        "meta_object_name": "FENGYUN 1C DEB",
        "meta_object_id": "1999-025EVJ",
        "meta_epoch": "2025-11-27T09:30:24.153696",
        "meta_mean_motion": 14.39418793,
        "meta_eccentricity": 0.00885007,
        "meta_inclination": 98.3025,
        "meta_ra_of_asc_node": 28.1739,
        "meta_arg_of_pericenter": 145.1281,
        "meta_mean_anomaly": 276.4662,
        "meta_ephemeris_type": 0,
        "meta_classification_type": "U",
        "meta_norad_cat_id": 38818,
        "meta_element_set_no": 999,
        "meta_rev_at_epoch": 67027,
        "meta_bstar": 0.00050962146,
        "meta_mean_motion_dot": 1.618e-05,
        "meta_mean_motion_ddot": 0,
        "tle_line1": "1 38818U 99025EVJ 25331.39611289  .00001618  00000+0  50962-3 0  9996",
        "tle_line2": "2 38818  98.3025  28.1739 0088500 145.1281 276.4662 14.39418793670274"
      },
      "geometry": {
        "type": "Point",
        "coordinates": [
          -146.1674510917903,
          -3.8226204200371683
        ]
      }
    },
    {
      "type": "Feature",
      "properties": {
        "norad_id": 38819,
        "name": "FENGYUN 1C DEB",
        "group": "fengyun-1c-debris",
        "lat": 66.99800660833469,
        "lon": -50.0601967697741,
        "alt_km": 871.3115591904025,
        "timestamp": "2025-12-03T19:33:07.266059+00:00",
        "meta_object_name": "FENGYUN 1C DEB",
        "meta_object_id": "1999-025EVK",
        "meta_epoch": "2025-11-30T19:03:47.354112",
        "meta_mean_motion": 14.19336653,
        "meta_eccentricity": 0.00792799,
        "meta_inclination": 98.6177,
        "meta_ra_of_asc_node": 327.9316,
        "meta_arg_of_pericenter": 229.2227,
        "meta_mean_anomaly": 255.6081,
        "meta_ephemeris_type": 0,
        "meta_classification_type": "U",
        "meta_norad_cat_id": 38819,
        "meta_element_set_no": 999,
        "meta_rev_at_epoch": 63308,
        "meta_bstar": 0.00044451105,
        "meta_mean_motion_dot": 9.2e-06,
        "meta_mean_motion_ddot": 0,
        "tle_line1": "1 38819U 99025EVK 25334.79429808  .00000920  00000+0  44451-3 0  9999",
        "tle_line2": "2 38819  98.6177 327.9316 0079279 229.2227 255.6081 14.19336653633088"
      },
      "geometry": {
        "type": "Point",
        "coordinates": [
          -50.0601967697741,
          66.99800660833469
        ]
      }
    },
    {
      "type": "Feature",
      "properties": {
        "norad_id": 38824,
        "name": "FENGYUN 1C DEB",
        "group": "fengyun-1c-debris",
        "lat": -80.2140476029657,
        "lon": -140.69695791416888,
        "alt_km": 800.0995282167623,
        "timestamp": "2025-12-03T19:33:07.266070+00:00",
        "meta_object_name": "FENGYUN 1C DEB",
        "meta_object_id": "1999-025EVQ",
        "meta_epoch": "2025-11-20T14:24:21.461760",
        "meta_mean_motion": 14.13875773,
        "meta_eccentricity": 0.00960414,
        "meta_inclination": 99.2955,
        "meta_ra_of_asc_node": 97.2934,
        "meta_arg_of_pericenter": 263.2679,
        "meta_mean_anomaly": 95.7556,
        "meta_ephemeris_type": 0,
        "meta_classification_type": "U",
        "meta_norad_cat_id": 38824,
        "meta_element_set_no": 999,
        "meta_rev_at_epoch": 68824,
        "meta_bstar": 0.0027703315,
        "meta_mean_motion_dot": 5.443e-05,
        "meta_mean_motion_ddot": 0,
        "tle_line1": "1 38824U 99025EVQ 25324.60024840  .00005443  00000+0  27703-2 0  9996",
        "tle_line2": "2 38824  99.2955  97.2934 0096041 263.2679  95.7556 14.13875773688246"
      },
      "geometry": {
        "type": "Point",
        "coordinates": [
          -140.69695791416888,
          -80.2140476029657
        ]
      }
    },
    {
      "type": "Feature",
      "properties": {
        "norad_id": 38827,
        "name": "FENGYUN 1C DEB",
        "group": "fengyun-1c-debris",
        "lat": -64.3680072093968,
        "lon": 18.929488783723418,
        "alt_km": 678.3715747360893,
        "timestamp": "2025-12-03T19:33:07.266080+00:00",
        "meta_object_name": "FENGYUN 1C DEB",
        "meta_object_id": "1999-025EVT",
        "meta_epoch": "2025-12-02T06:58:24.042720",
        "meta_mean_motion": 14.3273979,
        "meta_eccentricity": 0.02171,
        "meta_inclination": 98.388,
        "meta_ra_of_asc_node": 359.5433,
        "meta_arg_of_pericenter": 344.0092,
        "meta_mean_anomaly": 15.4311,
        "meta_ephemeris_type": 0,
        "meta_classification_type": "U",
        "meta_norad_cat_id": 38827,
        "meta_element_set_no": 999,
        "meta_rev_at_epoch": 60910,
        "meta_bstar": 0.0011390004,
        "meta_mean_motion_dot": 3.982e-05,
        "meta_mean_motion_ddot": 0,
        "tle_line1": "1 38827U 99025EVT 25336.29055605  .00003982  00000+0  11390-2 0  9991",
        "tle_line2": "2 38827  98.3880 359.5433 0217100 344.0092  15.4311 14.32739790609107"
      },
      "geometry": {
        "type": "Point",
        "coordinates": [
          18.929488783723418,
          -64.3680072093968
        ]
      }
    },
    {
      "type": "Feature",
      "properties": {
        "norad_id": 38829,
        "name": "FENGYUN 1C DEB",
        "group": "fengyun-1c-debris",
        "lat": -80.78226123583241,
        "lon": 65.67963335622824,
        "alt_km": 893.3586004657545,
        "timestamp": "2025-12-03T19:33:07.266090+00:00",
        "meta_object_name": "FENGYUN 1C DEB",
        "meta_object_id": "1999-025EVV",
        "meta_epoch": "2025-11-28T12:09:37.579680",
        "meta_mean_motion": 14.09173473,
        "meta_eccentricity": 0.00415826,
        "meta_inclination": 98.7503,
        "meta_ra_of_asc_node": 348.8898,
        "meta_arg_of_pericenter": 70.4663,
        "meta_mean_anomaly": 290.0991,
        "meta_ephemeris_type": 0,
        "meta_classification_type": "U",
        "meta_norad_cat_id": 38829,
        "meta_element_set_no": 999,
        "meta_rev_at_epoch": 63932,
        "meta_bstar": 0.00056587384,
        "meta_mean_motion_dot": 9.49e-06,
        "meta_mean_motion_ddot": 0,
        "tle_line1": "1 38829U 99025EVV 25332.50668495  .00000949  00000+0  56587-3 0  9998",
        "tle_line2": "2 38829  98.7503 348.8898 0041582  70.4663 290.0991 14.09173473639320"
      },
      "geometry": {
        "type": "Point",
        "coordinates": [
          65.67963335622824,
          -80.78226123583241
        ]
      }
    },
    {
      "type": "Feature",
      "properties": {
        "norad_id": 38832,
        "name": "FENGYUN 1C DEB",
        "group": "fengyun-1c-debris",
        "lat": 36.31857569712734,
        "lon": -151.1044334131245,
        "alt_km": 859.7659588706729,
        "timestamp": "2025-12-03T19:33:07.266100+00:00",
        "meta_object_name": "FENGYUN 1C DEB",
        "meta_object_id": "1999-025EVY",
        "meta_epoch": "2025-12-02T22:21:52.125984",
        "meta_mean_motion": 14.04442466,
        "meta_eccentricity": 0.00846241,
        "meta_inclination": 99.2674,
        "meta_ra_of_asc_node": 21.1018,
        "meta_arg_of_pericenter": 70.1542,
        "meta_mean_anomaly": 290.8721,
        "meta_ephemeris_type": 0,
        "meta_classification_type": "U",
        "meta_norad_cat_id": 38832,
        "meta_element_set_no": 999,
        "meta_rev_at_epoch": 63620,
        "meta_bstar": 0.0013226445,
        "meta_mean_motion_dot": 2.131e-05,
        "meta_mean_motion_ddot": 0,
        "tle_line1": "1 38832U 99025EVY 25336.93185331  .00002131  00000+0  13226-2 0  9993",
        "tle_line2": "2 38832  99.2674  21.1018 0084624  70.1542 290.8721 14.04442466636200"
      },
      "geometry": {
        "type": "Point",
        "coordinates": [
          -151.1044334131245,
          36.31857569712734
        ]
      }
    }
  ]
}